GLOBALSTAR M084         
1 38040U 11080A   24291.15917694 -.00000103  00000+0  54395-5 0  9990
2 38040  52.0011  68.3370 0000607 123.2179  48.2697 12.62268812592258
GLOBALSTAR M080         
1 38041U 11080B   24290.89572606 -.00000096  00000+0  44132-4 0  9999
2 38041  52.0060  70.6610 0000856 135.2691  38.1409 12.62267116592068
GLOBALSTAR M082         
1 38042U 11080C   24290.74807235 -.00000085  00000+0  10296-3 0  9994
2 38042  52.0099  26.5321 0000768  65.4469  96.8523 12.62267734592759
GLOBALSTAR M092         
1 38043U 11080D   24290.87469332 -.00000065  00000+0  21877-3 0  9996
2 38043  52.0069 116.5106 0000772  90.0129  48.0785 12.62268003591220
GLOBALSTAR M090         
1 38044U 11080E   24290.43945795 -.00000086  00000+0  10002-3 0  9992
2 38044  51.9913  21.5938 0000677  86.6045 352.8509 12.62268714592834
GLOBALSTAR M086         
1 38045U 11080F   24291.24421866 -.00000091  00000+0  73371-4 0  9996
2 38045  51.9923  19.6745 0001451 128.4855 250.3199 12.62268331592983
GLOBALSTAR M097         
1 39072U 13005A   24291.18768429 -.00000097  00000+0  39796-4 0  9997
2 39072  52.0047 294.1513 0000669  82.0961 277.9982 12.62271860540203
GLOBALSTAR M093         
1 39073U 13005B   24290.44824386 -.00000078  00000+0  14237-3 0  9992
2 39073  51.9810 290.0924 0000719  74.8025 285.2921 12.62265691539980
